{"generatedAt":"2026-04-04T07:09:08.014262Z","satellites":[{"name":"STARLINK-3244","tle1":"1 49741U 21115T   26093.85467684 -.00001122  00000+0 -52397-4 0  9990","tle2":"2 49741  53.2183  36.1510 0001482 119.8973 240.2167 15.08834333239338"},{"name":"STARLINK-3202","tle1":"1 49742U 21115U   26093.53723479 -.00000069  00000+0  13776-4 0  9999","tle2":"2 49742  53.2183  37.5741 0001376  90.0538 270.0612 15.08836426239284"},{"name":"STARLINK-3239","tle1":"1 49743U 21115V   26093.25481985  .00000562  00000+0  53419-4 0  9997","tle2":"2 49743  53.2196  38.7745 0001510  99.8699 260.2463 15.08839418239246"},{"name":"STARLINK-3231","tle1":"1 49744U 21115W   26093.53448577  .00001701  00000+0  12494-3 0  9992","tle2":"2 49744  53.2187  37.4798 0001323  85.7437 274.3706 15.08846684239280"},{"name":"STARLINK-3241","tle1":"1 49745U 21115X   26093.86203167 -.00000790  00000+0 -31559-4 0  9996","tle2":"2 49745  53.2178  36.0853 0001575  93.7064 266.4108 15.08831015239338"},{"name":"STARLINK-3233","tle1":"1 49746U 21115Y   26093.55196603  .00002664  00000+0  18536-3 0  9998","tle2":"2 49746  53.2183  37.5085 0001249  87.9936 272.1199 15.08844414239284"},{"name":"STARLINK-3247","tle1":"1 49747U 21115Z   26093.54091250  .00000587  00000+0  54951-4 0  9994","tle2":"2 49747  53.2173  37.5571 0001148  87.4975 272.6149 15.08839435239287"},{"name":"STARLINK-3248","tle1":"1 49748U 21115AA  26093.84998811 -.00000760  00000+0 -29669-4 0  9990","tle2":"2 49748  53.2180  35.7457 0001629  94.3152 265.8026 15.08828756239346"},{"name":"STARLINK-3250","tle1":"1 49749U 21115AB  26093.57133285  .00001276  00000+0  98243-4 0  9992","tle2":"2 49749  53.2180  37.6650 0001356  91.5560 268.5587 15.08847091239280"},{"name":"STARLINK-3236","tle1":"1 49750U 21115AC  26093.23642315  .00001891  00000+0  13682-3 0  9992","tle2":"2 49750  53.2180  38.9367 0001398  86.2537 273.8615 15.08849541239241"},{"name":"STARLINK-3229","tle1":"1 49751U 21115AD  26093.81323549 -.00001028  00000+0 -46519-4 0  9992","tle2":"2 49751  53.2181  36.2611 0001822  87.2754 272.8447 15.08833706239338"},{"name":"STARLINK-3209","tle1":"1 49752U 21115AE  26093.51702930  .00000680  00000+0  60796-4 0  9999","tle2":"2 49752  53.2213  27.6783 0001601 101.3884 258.7288 15.08842019239429"},{"name":"STARLINK-3200","tle1":"1 49753U 21115AF  26093.82796068  .00004614  00000+0  30771-3 0  9999","tle2":"2 49753  53.2166  36.2715 0001860  89.9811 270.1394 15.08853914239338"},{"name":"STARLINK-3193","tle1":"1 49754U 21115AG  26093.18856438  .00001190  00000+0  92854-4 0  9994","tle2":"2 49754  53.2196  29.2467 0001540  94.4187 265.6981 15.08841475239374"},{"name":"STARLINK-3210","tle1":"1 49755U 21115AH  26093.57497742  .00003053  00000+0  20974-3 0  9990","tle2":"2 49755  53.2218  37.4535 0001680  94.6979 265.4205 15.08856178239297"},{"name":"STARLINK-3207","tle1":"1 49756U 21115AJ  26093.79208098 -.00000779  00000+0 -30842-4 0  9999","tle2":"2 49756  53.2189  26.4321 0001505  90.2764 269.8400 15.08836194239466"},{"name":"STARLINK-3197","tle1":"1 49757U 21115AK  26093.78566103  .00001072  00000+0  85421-4 0  9991","tle2":"2 49757  53.2188  26.4711 0001398  89.2756 270.8397 15.08850900239466"},{"name":"STARLINK-3194","tle1":"1 49758U 21115AL  26093.53448090  .00001371  00000+0  10426-3 0  9993","tle2":"2 49758  53.2180  27.5874 0001837  86.3342 273.7860 15.08835202239429"},{"name":"STARLINK-3204","tle1":"1 49759U 21115AM  26093.19223410  .00001058  00000+0  84558-4 0  9993","tle2":"2 49759  53.2188  29.1236 0001526  88.8028 271.3139 15.08842448239378"},{"name":"STARLINK-3199","tle1":"1 49760U 21115AN  26093.80680488 -.00001354  00000+0 -67022-4 0  9993","tle2":"2 49760  53.2191  26.3671 0001628  91.3803 268.7376 15.08825859239470"},{"name":"STARLINK-3203","tle1":"1 49761U 21115AP  26093.19958968  .00000456  00000+0  46707-4 0  9994","tle2":"2 49761  53.2188  29.0911 0001376  88.3423 271.7727 15.08845936239379"},{"name":"STARLINK-3195","tle1":"1 49762U 21115AQ  26093.94664228 -.00001695  00000+0 -88474-4 0  9996","tle2":"2 49762  53.2193  25.7373 0001151  92.5295 267.5829 15.08833972239492"},{"name":"STARLINK-3198","tle1":"1 49763U 21115AR  26093.53814533  .00001236  00000+0  95741-4 0  9992","tle2":"2 49763  53.2190  27.5725 0001542  87.0696 273.0473 15.08846473239430"},{"name":"STARLINK-3227","tle1":"1 49765U 21115AT  26093.94391517 -.00000372  00000+0 -52987-5 0  9999","tle2":"2 49765  53.2196  25.7602 0001407  99.1546 260.9606 15.08840770239493"},{"name":"STARLINK-3190","tle1":"1 49766U 21115AU  26093.95865698 -.00002582  00000+0 -14432-3 0  9993","tle2":"2 49766  53.2194  25.6915 0001154 108.5888 251.5230 15.08814530239495"},{"name":"STARLINK-3192","tle1":"1 49767U 21115AV  26093.95032430 -.00003817  00000+0 -22191-3 0  9997","tle2":"2 49767  53.2182  25.7196 0001515  89.6893 270.4273 15.08834669239493"},{"name":"STARLINK-3196","tle1":"1 49768U 21115AW  26093.96503996 -.00003129  00000+0 -17868-3 0  9990","tle2":"2 49768  53.2194  25.6531 0001323  85.8106 274.3037 15.08826272239493"},{"name":"STARLINK-3208","tle1":"1 49769U 21115AX  26093.23734685  .00000720  00000+0  63315-4 0  9993","tle2":"2 49769  53.2181  28.9687 0001456  93.1042 267.0117 15.08848140239380"},{"name":"STARLINK-3191","tle1":"1 49770U 21115AY  26093.84089298 -.00002912  00000+0 -16503-3 0  9998","tle2":"2 49770  53.2193  26.2617 0001345  99.4572 260.6573 15.08821001240590"},{"name":"STARLINK-3201","tle1":"1 49771U 21115AZ  26093.77367852  .00000210  00000+0  31301-4 0  9997","tle2":"2 49771  53.2189  26.5186 0001530  98.7650 261.3515 15.08837119239460"},{"name":"STARLINK-3297","tle1":"1 50159U 21125D   26093.53542340  .00002067  00000+0  14790-3 0  9995","tle2":"2 50159  53.2163 147.5948 0001355  92.6875 267.4272 15.08848250240200"},{"name":"STARLINK-3304","tle1":"1 50161U 21125F   26093.41302710  .00001255  00000+0  96921-4 0  9995","tle2":"2 50161  53.2151 148.1317 0001375  92.3158 267.7991 15.08842757240184"},{"name":"STARLINK-3306","tle1":"1 50163U 21125H   26093.39647155  .00002081  00000+0  14880-3 0  9990","tle2":"2 50163  53.2164 128.1975 0001145  81.5220 278.5902 15.08840566240462"},{"name":"STARLINK-3298","tle1":"1 50165U 21125K   26093.53079189 -.00004663  00000+0 -27497-3 0  9992","tle2":"2 50165  53.2157 147.6045 0000889  80.7077 279.4016 15.08858745240256"},{"name":"STARLINK-3305","tle1":"1 50166U 21125L   26093.41489890  .00001082  00000+0  86031-4 0  9994","tle2":"2 50166  53.2167 138.0589 0001347  92.2918 267.8229 15.08840650240328"},{"name":"STARLINK-3271","tle1":"1 50167U 21125M   26093.52439549  .00000089  00000+0  23700-4 0  9993","tle2":"2 50167  53.2178 147.6458 0001551  89.6672 270.4498 15.08834964240202"},{"name":"STARLINK-3301","tle1":"1 50169U 21125P   26093.52066579  .00001872  00000+0  13564-3 0  9991","tle2":"2 50169  53.2157 137.6486 0001141  94.9022 265.2101 15.08846637240353"},{"name":"STARLINK-3245","tle1":"1 50170U 21125Q   26093.41026768  .00000983  00000+0  79873-4 0  9995","tle2":"2 50170  53.2168 138.1468 0001421  89.9570 270.1585 15.08839770240324"},{"name":"STARLINK-3286","tle1":"1 50171U 21125R   26093.42499028  .00001559  00000+0  11604-3 0  9997","tle2":"2 50171  53.2166 138.0811 0001505  97.1765 262.9398 15.08843475240333"},{"name":"STARLINK-3287","tle1":"1 50172U 21125S   26093.33666407  .00001145  00000+0  90017-4 0  9992","tle2":"2 50172  53.2164 138.4764 0001190  73.6710 286.4413 15.08844367240354"},{"name":"STARLINK-3289","tle1":"1 50173U 21125T   26093.52424617  .00023011  00000+0  13649-2 0  9999","tle2":"2 50173  53.2140 127.2262 0002097  32.3769 327.7353 15.11274269240502"},{"name":"STARLINK-3292","tle1":"1 50174U 21125U   26093.50190865  .00000448  00000+0  46176-4 0  9995","tle2":"2 50174  53.2163 133.3447 0000495 107.8802 252.2244 15.08844787240456"},{"name":"STARLINK-3291","tle1":"1 50175U 21125V   26093.54643236  .00001771  00000+0  12930-3 0  9995","tle2":"2 50175  53.2154 137.5343 0001361  83.0640 277.0507 15.08843131240354"},{"name":"STARLINK-3293","tle1":"1 50176U 21125W   26093.52802404  .00000874  00000+0  72962-4 0  9993","tle2":"2 50176  53.2159 137.6172 0001364  87.7197 272.3952 15.08846220240390"},{"name":"STARLINK-3282","tle1":"1 50177U 21125X   26093.53908285  .00001761  00000+0  12866-3 0  9991","tle2":"2 50177  53.2168 137.5660 0001349  85.5617 274.5530 15.08846820240356"},{"name":"STARLINK-3283","tle1":"1 50179U 21125Z   26093.39922481  .00001161  00000+0  90985-4 0  9994","tle2":"2 50179  53.2157 138.1942 0001243  87.7418 272.3717 15.08842901240339"},{"name":"STARLINK-3265","tle1":"1 50180U 21125AA  26093.51795167  .00001196  00000+0  93180-4 0  9997","tle2":"2 50180  53.2154 137.6711 0000662  60.7882 299.3176 15.08843139240394"},{"name":"STARLINK-3285","tle1":"1 50181U 21125AB  26093.44434849  .00002164  00000+0  15397-3 0  9996","tle2":"2 50181  53.2157 138.0046 0001109  88.2077 271.9042 15.08843617240346"},{"name":"STARLINK-3277","tle1":"1 50182U 21125AC  26093.48753501  .00001971  00000+0  14189-3 0  9993","tle2":"2 50182  53.2172 137.6454 0001380  95.7900 264.3250 15.08839241240380"},{"name":"STARLINK-3281","tle1":"1 50183U 21125AD  26093.50595301  .00002513  00000+0  17588-3 0  9998","tle2":"2 50183  53.2162 137.7166 0001198  86.5262 273.5867 15.08845484240390"},{"name":"STARLINK-3279","tle1":"1 50185U 21125AF  26093.38451867  .00001038  00000+0  83303-4 0  9994","tle2":"2 50185  53.2159 138.2989 0001305  88.6838 271.4303 15.08838231240337"},{"name":"STARLINK-3274","tle1":"1 50186U 21125AG  26093.52711747  .00001138  00000+0  89588-4 0  9999","tle2":"2 50186  53.2167 147.6213 0001367  83.6929 276.4219 15.08831494240206"},{"name":"STARLINK-3272","tle1":"1 50187U 21125AH  26093.48403734  .00005449  00000+0  35482-3 0  9991","tle2":"2 50187  53.2140 127.7683 0001730  42.0133 318.0992 15.09397320240463"},{"name":"STARLINK-3276","tle1":"1 50189U 21125AK  26093.41021117  .00020724  00000+0  11592-2 0  9995","tle2":"2 50189  53.2140 136.5588 0001225 236.7663 123.3214 15.13453716240399"}]}